[{"OBJECT_NAME":"REAL","OBJECT_ID":"2025-154G","EPOCH":"2026-03-09T17:20:09.670560","MEAN_MOTION":15.28408058,"ECCENTRICITY":0.00018528,"INCLINATION":97.4133,"RA_OF_ASC_NODE":137.2581,"ARG_OF_PERICENTER":118.5876,"MEAN_ANOMALY":241.555,"EPHEMERIS_TYPE":0,"CLASSIFICATION_TYPE":"U","NORAD_CAT_ID":64875,"ELEMENT_SET_NO":999,"REV_AT_EPOCH":3483,"BSTAR":0.0008290401,"MEAN_MOTION_DOT":0.00022901,"MEAN_MOTION_DDOT":0},{"OBJECT_NAME":"STARLINK-36492","OBJECT_ID":"2026-002AD","EPOCH":"2026-03-09T10:07:13.094112","MEAN_MOTION":15.27577988,"ECCENTRICITY":5.377e-5,"INCLINATION":43.0032,"RA_OF_ASC_NODE":327.1487,"ARG_OF_PERICENTER":0.4165,"MEAN_ANOMALY":359.6687,"EPHEMERIS_TYPE":0,"CLASSIFICATION_TYPE":"U","NORAD_CAT_ID":67332,"ELEMENT_SET_NO":999,"REV_AT_EPOCH":1119,"BSTAR":0.00089136439,"MEAN_MOTION_DOT":0.00024346,"MEAN_MOTION_DDOT":0}]
